[{"OBJECT_NAME":"VSP RF C1","OBJECT_ID":"2024-043AQ","EPOCH":"2026-03-09T21:56:05.358624","MEAN_MOTION":15.29409663,"ECCENTRICITY":0.00093965,"INCLINATION":97.5441,"RA_OF_ASC_NODE":205.1792,"ARG_OF_PERICENTER":219.6172,"MEAN_ANOMALY":140.4382,"EPHEMERIS_TYPE":0,"CLASSIFICATION_TYPE":"U","NORAD_CAT_ID":59136,"ELEMENT_SET_NO":999,"REV_AT_EPOCH":11190,"BSTAR":0.00026222052,"MEAN_MOTION_DOT":7.409e-5,"MEAN_MOTION_DDOT":0},{"OBJECT_NAME":"STARLINK-31977","OBJECT_ID":"2024-100H","EPOCH":"2026-03-09T10:46:13.283904","MEAN_MOTION":15.27561329,"ECCENTRICITY":8.313e-5,"INCLINATION":42.9997,"RA_OF_ASC_NODE":119.5264,"ARG_OF_PERICENTER":250.3237,"MEAN_ANOMALY":109.7525,"EPHEMERIS_TYPE":0,"CLASSIFICATION_TYPE":"U","NORAD_CAT_ID":59892,"ELEMENT_SET_NO":999,"REV_AT_EPOCH":10120,"BSTAR":-4.352118e-6,"MEAN_MOTION_DOT":-3.81e-6,"MEAN_MOTION_DDOT":0}]
